{
  "type": "FeatureCollection",
  "features": [
    {
      "type": "Feature",
      "properties": {
        "norad_id": 58647,
        "name": "TIANMU-1 13",
        "group": "weather",
        "lat": -64.96341888284175,
        "lon": 167.50717178108897,
        "alt_km": 496.2108075687747,
        "timestamp": "2025-12-09T21:34:11.051019+00:00",
        "meta_object_name": "TIANMU-1 13",
        "meta_object_id": "2023-205C",
        "meta_epoch": "2025-12-09T14:11:31.979040",
        "meta_mean_motion": 15.24462904,
        "meta_eccentricity": 0.00060544,
        "meta_inclination": 97.3624,
        "meta_ra_of_asc_node": 3.2759,
        "meta_arg_of_pericenter": 281.7098,
        "meta_mean_anomaly": 78.346,
        "meta_ephemeris_type": 0,
        "meta_classification_type": "U",
        "meta_norad_cat_id": 58647,
        "meta_element_set_no": 999,
        "meta_rev_at_epoch": 10859,
        "meta_bstar": 0.00037949965,
        "meta_mean_motion_dot": 9.256e-05,
        "meta_mean_motion_ddot": 0,
        "tle_line1": "1 58647U 23205C   25343.59134235  .00009256  00000+0  37950-3 0  9999",
        "tle_line2": "2 58647  97.3624   3.2759 0006054 281.7098  78.3460 15.24462904108597"
      },
      "geometry": {
        "type": "Point",
        "coordinates": [
          167.50717178108897,
          -64.96341888284175
        ]
      }
    },
    {
      "type": "Feature",
      "properties": {
        "norad_id": 58648,
        "name": "TIANMU-1 14",
        "group": "weather",
        "lat": -22.6551760055792,
        "lon": 6.020074806648705,
        "alt_km": 494.97533238881533,
        "timestamp": "2025-12-09T21:34:11.051030+00:00",
        "meta_object_name": "TIANMU-1 14",
        "meta_object_id": "2023-205D",
        "meta_epoch": "2025-12-09T13:47:34.641600",
        "meta_mean_motion": 15.24446873,
        "meta_eccentricity": 0.0006912,
        "meta_inclination": 97.3556,
        "meta_ra_of_asc_node": 2.6112,
        "meta_arg_of_pericenter": 286.901,
        "meta_mean_anomaly": 73.147,
        "meta_ephemeris_type": 0,
        "meta_classification_type": "U",
        "meta_norad_cat_id": 58648,
        "meta_element_set_no": 999,
        "meta_rev_at_epoch": 10859,
        "meta_bstar": 0.00037855925,
        "meta_mean_motion_dot": 9.23e-05,
        "meta_mean_motion_ddot": 0,
        "tle_line1": "1 58648U 23205D   25343.57470650  .00009230  00000+0  37856-3 0  9999",
        "tle_line2": "2 58648  97.3556   2.6112 0006912 286.9010  73.1470 15.24446873108593"
      },
      "geometry": {
        "type": "Point",
        "coordinates": [
          6.020074806648705,
          -22.6551760055792
        ]
      }
    },
    {
      "type": "Feature",
      "properties": {
        "norad_id": 58660,
        "name": "TIANMU-1 19",
        "group": "weather",
        "lat": -18.017858816816634,
        "lon": -87.49410036900395,
        "alt_km": 486.55326342763965,
        "timestamp": "2025-12-09T21:34:11.051040+00:00",
        "meta_object_name": "TIANMU-1 19",
        "meta_object_id": "2023-208A",
        "meta_epoch": "2025-12-09T14:25:02.436960",
        "meta_mean_motion": 15.27758449,
        "meta_eccentricity": 0.00040581,
        "meta_inclination": 97.4389,
        "meta_ra_of_asc_node": 94.6443,
        "meta_arg_of_pericenter": 267.1189,
        "meta_mean_anomaly": 92.9586,
        "meta_ephemeris_type": 0,
        "meta_classification_type": "U",
        "meta_norad_cat_id": 58660,
        "meta_element_set_no": 999,
        "meta_rev_at_epoch": 10834,
        "meta_bstar": 0.00052278564,
        "meta_mean_motion_dot": 0.00014117,
        "meta_mean_motion_ddot": 0,
        "tle_line1": "1 58660U 23208A   25343.60072265  .00014117  00000+0  52279-3 0  9996",
        "tle_line2": "2 58660  97.4389  94.6443 0004058 267.1189  92.9586 15.27758449108345"
      },
      "geometry": {
        "type": "Point",
        "coordinates": [
          -87.49410036900395,
          -18.017858816816634
        ]
      }
    },
    {
      "type": "Feature",
      "properties": {
        "norad_id": 58661,
        "name": "TIANMU-1 20",
        "group": "weather",
        "lat": -77.70016260032587,
        "lon": -121.39480649612221,
        "alt_km": 482.1557516605026,
        "timestamp": "2025-12-09T21:34:11.051051+00:00",
        "meta_object_name": "TIANMU-1 20",
        "meta_object_id": "2023-208B",
        "meta_epoch": "2025-12-09T14:09:07.028352",
        "meta_mean_motion": 15.28949446,
        "meta_eccentricity": 0.00063185,
        "meta_inclination": 97.4327,
        "meta_ra_of_asc_node": 95.0778,
        "meta_arg_of_pericenter": 279.1842,
        "meta_mean_anomaly": 80.8683,
        "meta_ephemeris_type": 0,
        "meta_classification_type": "U",
        "meta_norad_cat_id": 58661,
        "meta_element_set_no": 999,
        "meta_rev_at_epoch": 10841,
        "meta_bstar": 0.00049390712,
        "meta_mean_motion_dot": 0.00013831,
        "meta_mean_motion_ddot": 0,
        "tle_line1": "1 58661U 23208B   25343.58966468  .00013831  00000+0  49391-3 0  9994",
        "tle_line2": "2 58661  97.4327  95.0778 0006318 279.1842  80.8683 15.28949446108416"
      },
      "geometry": {
        "type": "Point",
        "coordinates": [
          -121.39480649612221,
          -77.70016260032587
        ]
      }
    },
    {
      "type": "Feature",
      "properties": {
        "norad_id": 58662,
        "name": "TIANMU-1 21",
        "group": "weather",
        "lat": -58.54653863334496,
        "lon": -95.04942759070393,
        "alt_km": 475.2437496710354,
        "timestamp": "2025-12-09T21:34:11.051061+00:00",
        "meta_object_name": "TIANMU-1 21",
        "meta_object_id": "2023-208C",
        "meta_epoch": "2025-12-09T14:15:17.618688",
        "meta_mean_motion": 15.31444075,
        "meta_eccentricity": 0.00058874,
        "meta_inclination": 97.4376,
        "meta_ra_of_asc_node": 96.9764,
        "meta_arg_of_pericenter": 273.3832,
        "meta_mean_anomaly": 86.6735,
        "meta_ephemeris_type": 0,
        "meta_classification_type": "U",
        "meta_norad_cat_id": 58662,
        "meta_element_set_no": 999,
        "meta_rev_at_epoch": 10851,
        "meta_bstar": 0.00053049063,
        "meta_mean_motion_dot": 0.00016055,
        "meta_mean_motion_ddot": 0,
        "tle_line1": "1 58662U 23208C   25343.59395392  .00016055  00000+0  53049-3 0  9994",
        "tle_line2": "2 58662  97.4376  96.9764 0005887 273.3832  86.6735 15.31444075108516"
      },
      "geometry": {
        "type": "Point",
        "coordinates": [
          -95.04942759070393,
          -58.54653863334496
        ]
      }
    },
    {
      "type": "Feature",
      "properties": {
        "norad_id": 58663,
        "name": "TIANMU-1 22",
        "group": "weather",
        "lat": -21.675446767595712,
        "lon": -87.9744975589874,
        "alt_km": 488.9618453786252,
        "timestamp": "2025-12-09T21:34:11.051072+00:00",
        "meta_object_name": "TIANMU-1 22",
        "meta_object_id": "2023-208D",
        "meta_epoch": "2025-12-09T14:24:00.795744",
        "meta_mean_motion": 15.2751883,
        "meta_eccentricity": 0.00027854,
        "meta_inclination": 97.4383,
        "meta_ra_of_asc_node": 94.7041,
        "meta_arg_of_pericenter": 302.6584,
        "meta_mean_anomaly": 57.4387,
        "meta_ephemeris_type": 0,
        "meta_classification_type": "U",
        "meta_norad_cat_id": 58663,
        "meta_element_set_no": 999,
        "meta_rev_at_epoch": 10835,
        "meta_bstar": 0.00047503317,
        "meta_mean_motion_dot": 0.00012723,
        "meta_mean_motion_ddot": 0,
        "tle_line1": "1 58663U 23208D   25343.60000921  .00012723  00000+0  47503-3 0  9994",
        "tle_line2": "2 58663  97.4383  94.7041 0002785 302.6584  57.4387 15.27518830108350"
      },
      "geometry": {
        "type": "Point",
        "coordinates": [
          -87.9744975589874,
          -21.675446767595712
        ]
      }
    },
    {
      "type": "Feature",
      "properties": {
        "norad_id": 58700,
        "name": "TIANMU-1 15",
        "group": "weather",
        "lat": 0.8907893874084953,
        "lon": 165.2619988126527,
        "alt_km": 492.56059330274184,
        "timestamp": "2025-12-09T21:34:11.051086+00:00",
        "meta_object_name": "TIANMU-1 15",
        "meta_object_id": "2024-004A",
        "meta_epoch": "2025-12-09T15:15:54.419328",
        "meta_mean_motion": 15.24615288,
        "meta_eccentricity": 0.00053244,
        "meta_inclination": 97.463,
        "meta_ra_of_asc_node": 165.1171,
        "meta_arg_of_pericenter": 311.7302,
        "meta_mean_anomaly": 48.348,
        "meta_ephemeris_type": 0,
        "meta_classification_type": "U",
        "meta_norad_cat_id": 58700,
        "meta_element_set_no": 999,
        "meta_rev_at_epoch": 10687,
        "meta_bstar": 0.00041076168,
        "meta_mean_motion_dot": 0.00010069,
        "meta_mean_motion_ddot": 0,
        "tle_line1": "1 58700U 24004A   25343.63604652  .00010069  00000+0  41076-3 0  9995",
        "tle_line2": "2 58700  97.4630 165.1171 0005324 311.7302  48.3480 15.24615288106875"
      },
      "geometry": {
        "type": "Point",
        "coordinates": [
          165.2619988126527,
          0.8907893874084953
        ]
      }
    }
  ]
}